CTC1_L_00002001-01
1 10000U 24002HE  26075.70028935  .00000000  00000+0  00000-0 0  9992
2 10000  45.0000   0.0000 0000000   0.0000   0.0000 15.90815360    11
CTC1_L_00002001-02
1 10001U 22441LO  26075.70028935  .00000000  00000+0  00000-0 0  9998
2 10001  45.0000   0.0000 0000000   0.0000  90.0000 15.90815360    11
CTC1_L_00002001-03
1 10002U 23556CH  26075.70028935  .00000000  00000+0  00000-0 0  9997
2 10002  45.0000   0.0000 0000000   0.0000 180.0000 15.90815360    12
CTC1_L_00002001-04
1 10003U 22022UU  26075.70028935  .00000000  00000+0  00000-0 0  9995
2 10003  45.0000   0.0000 0000000   0.0000 270.0000 15.90815360    13
CTC1_L_00002002-01
1 10004U 23895ZQ  26075.70028935  .00000000  00000+0  00000-0 0  9995
2 10004  45.0000  12.0000 0000000   0.0000  12.0000 15.90815360    11
CTC1_L_00002002-02
1 10005U 26193OM  26075.70028935  .00000000  00000+0  00000-0 0  9990
2 10005  45.0000  12.0000 0000000   0.0000 102.0000 15.90815360    12
CTC1_L_00002002-03
1 10006U 24185AL  26075.70028935  .00000000  00000+0  00000-0 0  9990
2 10006  45.0000  12.0000 0000000   0.0000 192.0000 15.90815360    12
CTC1_L_00002002-04
1 10007U 22652RU  26075.70028935  .00000000  00000+0  00000-0 0  9998
2 10007  45.0000  12.0000 0000000   0.0000 282.0000 15.90815360    13
CTC1_L_00002003-01
1 10008U 24254LM  26075.70028935  .00000000  00000+0  00000-0 0  9999
2 10008  45.0000  24.0000 0000000   0.0000  24.0000 15.90815360    11
CTC1_L_00002003-02
1 10009U 24313DN  26075.70028935  .00000000  00000+0  00000-0 0  9996
2 10009  45.0000  24.0000 0000000   0.0000 114.0000 15.90815360    12
CTC1_L_00002003-03
1 10010U 25255RU  26075.70028935  .00000000  00000+0  00000-0 0  9994
2 10010  45.0000  24.0000 0000000   0.0000 204.0000 15.90815360    14
CTC1_L_00002003-04
1 10011U 26578VZ  26075.70028935  .00000000  00000+0  00000-0 0  9994
2 10011  45.0000  24.0000 0000000   0.0000 294.0000 15.90815360    14
CTC1_L_00002004-01
1 10012U 26132NQ  26075.70028935  .00000000  00000+0  00000-0 0  9991
2 10012  45.0000  36.0000 0000000   0.0000  36.0000 15.90815360    12
CTC1_L_00002004-02
1 10013U 24431HE  26075.70028935  .00000000  00000+0  00000-0 0  9992
2 10013  45.0000  36.0000 0000000   0.0000 126.0000 15.90815360    13
CTC1_L_00002004-03
1 10014U 25853SQ  26075.70028935  .00000000  00000+0  00000-0 0  9992
2 10014  45.0000  36.0000 0000000   0.0000 216.0000 15.90815360    14
CTC1_L_00002004-04
1 10015U 25303KN  26075.70028935  .00000000  00000+0  00000-0 0  9993
2 10015  45.0000  36.0000 0000000   0.0000 306.0000 15.90815360    15
CTC1_L_00002005-01
1 10016U 26793NT  26075.70028935  .00000000  00000+0  00000-0 0  9998
2 10016  45.0000  48.0000 0000000   0.0000  48.0000 15.90815360    12
CTC1_L_00002005-02
1 10017U 23802XT  26075.70028935  .00000000  00000+0  00000-0 0  9997
2 10017  45.0000  48.0000 0000000   0.0000 138.0000 15.90815360    13
CTC1_L_00002005-03
1 10018U 23997GE  26075.70028935  .00000000  00000+0  00000-0 0  9993
2 10018  45.0000  48.0000 0000000   0.0000 228.0000 15.90815360    14
CTC1_L_00002005-04
1 10019U 22561UP  26075.70028935  .00000000  00000+0  00000-0 0  9990
2 10019  45.0000  48.0000 0000000   0.0000 318.0000 15.90815360    15
CTC1_L_00002006-01
1 10020U 24367NC  26075.70028935  .00000000  00000+0  00000-0 0  9998
2 10020  45.0000  60.0000 0000000   0.0000  60.0000 15.90815360    15
CTC1_L_00002006-02
1 10021U 24796CC  26075.70028935  .00000000  00000+0  00000-0 0  9995
2 10021  45.0000  60.0000 0000000   0.0000 150.0000 15.90815360    16
CTC1_L_00002006-03
1 10022U 24842MP  26075.70028935  .00000000  00000+0  00000-0 0  9998
2 10022  45.0000  60.0000 0000000   0.0000 240.0000 15.90815360    17
CTC1_L_00002006-04
1 10023U 26645XH  26075.70028935  .00000000  00000+0  00000-0 0  9992
2 10023  45.0000  60.0000 0000000   0.0000 330.0000 15.90815360    18
CTC1_L_00002007-01
1 10024U 24487KE  26075.70028935  .00000000  00000+0  00000-0 0  9995
2 10024  45.0000  72.0000 0000000   0.0000  72.0000 15.90815360    15
CTC1_L_00002007-02
1 10025U 26244DM  26075.70028935  .00000000  00000+0  00000-0 0  9999
2 10025  45.0000  72.0000 0000000   0.0000 162.0000 15.90815360    16
CTC1_L_00002007-03
1 10026U 22613IT  26075.70028935  .00000000  00000+0  00000-0 0  9996
2 10026  45.0000  72.0000 0000000   0.0000 252.0000 15.90815360    17
CTC1_L_00002007-04
1 10027U 26127PD  26075.70028935  .00000000  00000+0  00000-0 0  9991
2 10027  45.0000  72.0000 0000000   0.0000 342.0000 15.90815360    18
CTC1_L_00002008-01
1 10028U 24565RV  26075.70028935  .00000000  00000+0  00000-0 0  9996
2 10028  45.0000  84.0000 0000000   0.0000  84.0000 15.90815360    15
CTC1_L_00002008-02
1 10029U 23640FW  26075.70028935  .00000000  00000+0  00000-0 0  9990
2 10029  45.0000  84.0000 0000000   0.0000 174.0000 15.90815360    16
CTC1_L_00002008-03
1 10030U 25165GB  26075.70028935  .00000000  00000+0  00000-0 0  9996
2 10030  45.0000  84.0000 0000000   0.0000 264.0000 15.90815360    18
CTC1_L_00002008-04
1 10031U 22792GG  26075.70028935  .00000000  00000+0  00000-0 0  9990
2 10031  45.0000  84.0000 0000000   0.0000 354.0000 15.90815360    19
CTC1_L_00002009-01
1 10032U 26965DX  26075.70028935  .00000000  00000+0  00000-0 0  9997
2 10032  45.0000  96.0000 0000000   0.0000  96.0000 15.90815360    16
CTC1_L_00002009-02
1 10033U 23623MA  26075.70028935  .00000000  00000+0  00000-0 0  9996
2 10033  45.0000  96.0000 0000000   0.0000 186.0000 15.90815360    17
CTC1_L_00002009-03
1 10034U 25799RC  26075.70028935  .00000000  00000+0  00000-0 0  9993
2 10034  45.0000  96.0000 0000000   0.0000 276.0000 15.90815360    18
CTC1_L_00002009-04
1 10035U 22208HR  26075.70028935  .00000000  00000+0  00000-0 0  9996
2 10035  45.0000  96.0000 0000000   0.0000   6.0000 15.90815360    10
CTC1_L_00002010-01
1 10036U 22767HN  26075.70028935  .00000000  00000+0  00000-0 0  9997
2 10036  45.0000 108.0000 0000000   0.0000 108.0000 15.90815360    18
CTC1_L_00002010-02
1 10037U 24174ND  26075.70028935  .00000000  00000+0  00000-0 0  9992
2 10037  45.0000 108.0000 0000000   0.0000 198.0000 15.90815360    18
CTC1_L_00002010-03
1 10038U 26619KZ  26075.70028935  .00000000  00000+0  00000-0 0  9999
2 10038  45.0000 108.0000 0000000   0.0000 288.0000 15.90815360    19
CTC1_L_00002010-04
1 10039U 26316QA  26075.70028935  .00000000  00000+0  00000-0 0  9994
2 10039  45.0000 108.0000 0000000   0.0000  18.0000 15.90815360    11
CTC1_L_00002011-01
1 10040U 24281LN  26075.70028935  .00000000  00000+0  00000-0 0  9995
2 10040  45.0000 120.0000 0000000   0.0000 120.0000 15.90815360    11
CTC1_L_00002011-02
1 10041U 23489ZP  26075.70028935  .00000000  00000+0  00000-0 0  9995
2 10041  45.0000 120.0000 0000000   0.0000 210.0000 15.90815360    12
CTC1_L_00002011-03
1 10042U 23993QB  26075.70028935  .00000000  00000+0  00000-0 0  9996
2 10042  45.0000 120.0000 0000000   0.0000 300.0000 15.90815360    13
CTC1_L_00002011-04
1 10043U 22091DE  26075.70028935  .00000000  00000+0  00000-0 0  9995
2 10043  45.0000 120.0000 0000000   0.0000  30.0000 15.90815360    14
CTC1_L_00002012-01
1 10044U 25458FJ  26075.70028935  .00000000  00000+0  00000-0 0  9996
2 10044  45.0000 132.0000 0000000   0.0000 132.0000 15.90815360    11
CTC1_L_00002012-02
1 10045U 26209BN  26075.70028935  .00000000  00000+0  00000-0 0  9992
2 10045  45.0000 132.0000 0000000   0.0000 222.0000 15.90815360    12
CTC1_L_00002012-03
1 10046U 24836YE  26075.70028935  .00000000  00000+0  00000-0 0  9997
2 10046  45.0000 132.0000 0000000   0.0000 312.0000 15.90815360    13
CTC1_L_00002012-04
1 10047U 26390P   26075.70028935  .00000000  00000+0  00000-0 0  9995
2 10047  45.0000 132.0000 0000000   0.0000  42.0000 15.90815360    14
CTC1_L_00002013-01
1 10048U 24836CJ  26075.70028935  .00000000  00000+0  00000-0 0  9999
2 10048  45.0000 144.0000 0000000   0.0000 144.0000 15.90815360    11
CTC1_L_00002013-02
1 10049U 26484ZW  26075.70028935  .00000000  00000+0  00000-0 0  9991
2 10049  45.0000 144.0000 0000000   0.0000 234.0000 15.90815360    12
CTC1_L_00002013-03
1 10050U 25993QV  26075.70028935  .00000000  00000+0  00000-0 0  9997
2 10050  45.0000 144.0000 0000000   0.0000 324.0000 15.90815360    14
CTC1_L_00002013-04
1 10051U 22727II  26075.70028935  .00000000  00000+0  00000-0 0  9990
2 10051  45.0000 144.0000 0000000   0.0000  54.0000 15.90815360    15
CTC1_L_00002014-01
1 10052U 24461ES  26075.70028935  .00000000  00000+0  00000-0 0  9998
2 10052  45.0000 156.0000 0000000   0.0000 156.0000 15.90815360    12
CTC1_L_00002014-02
1 10053U 24321PL  26075.70028935  .00000000  00000+0  00000-0 0  9994
2 10053  45.0000 156.0000 0000000   0.0000 246.0000 15.90815360    13
CTC1_L_00002014-03
1 10054U 24131AC  26075.70028935  .00000000  00000+0  00000-0 0  9994
2 10054  45.0000 156.0000 0000000   0.0000 336.0000 15.90815360    14
CTC1_L_00002014-04
1 10055U 25693TY  26075.70028935  .00000000  00000+0  00000-0 0  9999
2 10055  45.0000 156.0000 0000000   0.0000  66.0000 15.90815360    15
CTC1_L_00002015-01
1 10056U 22839OT  26075.70028935  .00000000  00000+0  00000-0 0  9999
2 10056  45.0000 168.0000 0000000   0.0000 168.0000 15.90815360    12
CTC1_L_00002015-02
1 10057U 26681EY  26075.70028935  .00000000  00000+0  00000-0 0  9999
2 10057  45.0000 168.0000 0000000   0.0000 258.0000 15.90815360    13
CTC1_L_00002015-03
1 10058U 22512KR  26075.70028935  .00000000  00000+0  00000-0 0  9999
2 10058  45.0000 168.0000 0000000   0.0000 348.0000 15.90815360    14
CTC1_L_00002015-04
1 10059U 24718IB  26075.70028935  .00000000  00000+0  00000-0 0  9990
2 10059  45.0000 168.0000 0000000   0.0000  78.0000 15.90815360    15
CTC1_L_00002016-01
1 10060U 23957E   26075.70028935  .00000000  00000+0  00000-0 0  9996
2 10060  45.0000 180.0000 0000000   0.0000 180.0000 15.90815360    15
CTC1_L_00002016-02
1 10061U 22238QY  26075.70028935  .00000000  00000+0  00000-0 0  9998
2 10061  45.0000 180.0000 0000000   0.0000 270.0000 15.90815360    16
